{
  "norad_id": 63276,
  "name": "STARLINK-11623 [DTC]",
  "history": [
    {
      "epoch": "2026-03-28T04:18:04.930272Z",
      "apogee_km": 357.2699351284027,
      "perigee_km": 355.40744853107026,
      "latitude_deg": -2.0051529513775812e-05,
      "longitude_deg": 110.99604920449617,
      "height_km": 356.4044177672382,
      "semi_major_axis_km": 6734.475691829736,
      "eccentricity": 0.00013828,
      "inclination_deg": 43.0011,
      "raan_deg": 1.12,
      "arg_perigee_deg": 251.6436,
      "mean_anomaly_deg": 108.4281,
      "mean_motion_rev_day": 15.70894711
    },
    {
      "epoch": "2026-03-30T03:36:26.590464Z",
      "apogee_km": 357.55178300530497,
      "perigee_km": 355.18931775663077,
      "latitude_deg": -3.327450588776891e-05,
      "longitude_deg": 107.58099559390448,
      "height_km": 356.3722969563985,
      "semi_major_axis_km": 6734.507550380968,
      "eccentricity": 0.0001754,
      "inclination_deg": 43.001,
      "raan_deg": 349.238,
      "arg_perigee_deg": 258.8235,
      "mean_anomaly_deg": 101.2435,
      "mean_motion_rev_day": 15.70883564
    },
    {
      "epoch": "2026-03-30T09:42:41.618304Z",
      "apogee_km": 356.950759455809,
      "perigee_km": 355.57640298519254,
      "latitude_deg": 4.093260311899445e-05,
      "longitude_deg": 14.235669479969472,
      "height_km": 355.775088184995,
      "semi_major_axis_km": 6734.4005812205005,
      "eccentricity": 0.00010204,
      "inclination_deg": 43.0015,
      "raan_deg": 347.7059,
      "arg_perigee_deg": 292.299,
      "mean_anomaly_deg": 67.777,
      "mean_motion_rev_day": 15.70920992
    },
    {
      "epoch": "2026-03-30T23:26:43.308960Z",
      "apogee_km": 357.1778007913699,
      "perigee_km": 355.3324426621739,
      "latitude_deg": 3.848832098572311e-05,
      "longitude_deg": 164.21499589034795,
      "height_km": 356.88631302207443,
      "semi_major_axis_km": 6734.392121726772,
      "eccentricity": 0.00013701,
      "inclination_deg": 43.0008,
      "raan_deg": 344.2563,
      "arg_perigee_deg": 158.8644,
      "mean_anomaly_deg": 201.2281,
      "mean_motion_rev_day": 15.70923952
    }
  ]
}